STARLINK-5797           
1 55784U 23028AV  26146.59446292 -.00042216  00000+0 -34884-2 0  9999
2 55784  69.9999   8.1099 0006497 287.7559  72.2891 14.99006497178697
STARLINK-5818           
1 55785U 23028AW  26146.60721278  .00000681  00000+0  64877-4 0  9997
2 55785  69.9998   8.1543 0002067 274.2896  85.8026 14.98340324178694
STARLINK-5823           
1 55786U 23028AX  26145.79215733 -.01701725  00000+0 -18623+0 0  9994
2 55786  69.9859  10.1286 0005466 257.1956 102.8589 14.91440666178564
STARLINK-5811           
1 55787U 23028AY  26146.60303448 -.00000295  00000+0 -16949-4 0  9994
2 55787  69.9995   8.1400 0002686 269.7528  90.3323 14.98329662178696
STARLINK-5804           
1 55788U 23028AZ  26146.33182083 -.00000202  00000+0 -91488-5 0  9995
2 55788  69.9996   8.7991 0002558 271.3508  88.7358 14.98329272178656
STARLINK-5815           
1 55789U 23028BA  26146.57381873 -.00000279  00000+0 -15577-4 0  9998
2 55789  69.9998   8.0360 0002664 272.5436  87.5418 14.98339133178698
STARLINK-5813           
1 55790U 23028BB  26146.57815409  .00000457  00000+0  46116-4 0  9996
2 55790  69.9998   8.0523 0002834 269.5624  90.5210 14.98332469178694
STARLINK-5807           
1 55791U 23028BC  26146.32347004 -.00002439  00000+0 -19661-3 0  9999
2 55791  70.0000   8.7691 0002641 268.5866  91.4990 14.98343041178657
ONEWEB-0530             
1 55796U 23029A   26146.34772258  .00000074  00000+0  14967-3 0  9995
2 55796  87.9167 278.8253 0002350 101.0445 259.0953 13.20769905158269
ONEWEB-0534             
1 55797U 23029B   26146.41169379  .00000044  00000+0  77130-4 0  9997
2 55797  87.9168 278.8126 0001831  96.2773 263.8569 13.20769799158270
ONEWEB-0556             
1 55798U 23029C   26146.41845907  .00000159  00000+0  36031-3 0  9997
2 55798  87.9165 278.8115 0002365  79.2610 280.8789 13.20771288158279
ONEWEB-0562             
1 55799U 23029D   26146.40496409  .00000084  00000+0  17340-3 0  9995
2 55799  87.9165 278.7947 0002747  93.3280 266.8167 13.20771852158277
ONEWEB-0563             
1 55800U 23029E   26146.39992940  .00000108  00000+0  23297-3 0  9992
2 55800  87.9165 278.8263 0001716  93.8691 266.2639 13.20771617158264
ONEWEB-0564             
1 55801U 23029F   26146.39319703  .00000086  00000+0  17890-3 0  9990
2 55801  87.9169 278.8007 0002298  97.8871 262.2523 13.20772700158278
ONEWEB-0638             
1 55802U 23029G   26146.39502674  .00000255  00000+0  65264-3 0  9998
2 55802  87.8933 294.0997 0002210  86.0210 274.1173 13.14501717156537
ONEWEB-0639             
1 55803U 23029H   26146.49995341  .00000082  00000+0  17156-3 0  9992
2 55803  87.9151 309.2996 0000959  70.4724 289.6513 13.19726256156041
ONEWEB-0640             
1 55804U 23029J   26146.48065753  .00000251  00000+0  64154-3 0  9995
2 55804  87.8935 294.0737 0001989  76.6860 283.4491 13.14501625156568
ONEWEB-0641             
1 55805U 23029K   26146.49520590  .00000004  00000+0 -22784-4 0  9993
2 55805  87.9157 309.2882 0001612  92.7673 267.3645 13.19726248156051
ONEWEB-0642             
1 55806U 23029L   26146.49046854  .00000074  00000+0  15339-3 0  9993
2 55806  87.9152 309.3023 0000954  88.4697 271.6545 13.19725465156047
ONEWEB-0643             
1 55807U 23029M   26146.45053431 -.00000013  00000+0 -69644-4 0  9993
2 55807  87.8932 294.0666 0001194 107.4317 252.6944 13.14502324156532
ONEWEB-0644             
1 55808U 23029N   26146.48571765  .00000069  00000+0  13979-3 0  9990
2 55808  87.9150 309.3051 0001421  93.5905 266.5390 13.19726716156048
ONEWEB-0645             
1 55809U 23029P   26146.43202185  .00000061  00000+0  11971-3 0  9995
2 55809  87.9151 309.3128 0001584  78.6851 281.4459 13.19726550156036
ONEWEB-0646             
1 55810U 23029Q   26146.44940776  .00000075  00000+0  15567-3 0  9993
2 55810  87.9150 309.3094 0001496  94.1562 265.9742 13.19726349156020
ONEWEB-0648             
1 55811U 23029R   26146.41881749  .00000079  00000+0  17800-3 0  9991
2 55811  87.8946 294.0445 0001198  68.6257 291.5000 13.14503742156532
ONEWEB-0649             
1 55812U 23029S   26146.47467369  .00000107  00000+0  23503-3 0  9995
2 55812  87.9150 309.3021 0001621  87.0028 273.1290 13.19726677156067
ONEWEB-0650             
1 55813U 23029T   26146.46993802  .00000119  00000+0  26553-3 0  9992
2 55813  87.9150 309.3054 0001331  91.2317 268.8968 13.19726181156030
ONEWEB-0652             
1 55814U 23029U   26146.47590987  .00000300  00000+0  77481-3 0  9999
2 55814  87.8935 294.0412 0001932  98.7941 261.3408 13.14504343156510
ONEWEB-0653             
1 55815U 23029V   26146.46004132  .00000057  00000+0  12046-3 0  9996
2 55815  87.8942 294.0418 0001894  95.4302 264.7044 13.14501846156548
ONEWEB-0654             
1 55816U 23029W   26146.37917382  .00000082  00000+0  18560-3 0  9992
2 55816  87.8940 294.0541 0002213  98.4371 261.7010 13.14502873156551
ONEWEB-0656             
1 55817U 23029X   26146.38646562  .00000120  00000+0  26274-3 0  9997
2 55817  87.9179 278.7756 0002319 101.2737 258.8658 13.20771430158270
ONEWEB-0657             
1 55818U 23029Y   26146.46520139  .00000131  00000+0  29462-3 0  9992
2 55818  87.9150 309.3051 0002066 113.4333 246.7017 13.19726272156045
ONEWEB-0658             
1 55819U 23029Z   26146.46046080  .00000132  00000+0  29688-3 0  9992
2 55819  87.9159 309.2800 0001376  92.7851 267.3439 13.19726956156050
ONEWEB-0660             
1 55820U 23029AA  26146.43308308 -.00000141  00000+0 -41407-3 0  9990
2 55820  87.8950 294.0345 0001730  86.5741 273.5587 13.14502201156545
ONEWEB-0661             
1 55821U 23029AB  26146.39185569  .00000258  00000+0  66155-3 0  9992
2 55821  87.8934 294.0912 0001866  87.2817 272.8526 13.14501740156520
ONEWEB-0662             
1 55822U 23029AC  26146.42673317 -.00000050  00000+0 -17046-3 0  9997
2 55822  87.8933 294.0908 0001735  86.9942 273.1386 13.14501439156573
ONEWEB-0663             
1 55823U 23029AD  26145.81588902 -.00014770  00000+0 -36431-1 0  9996
2 55823  87.9179 278.9618 0001887  48.9277 311.2019 13.20744750158192
ONEWEB-0664             
1 55824U 23029AE  26146.37297159  .00000091  00000+0  19254-3 0  9995
2 55824  87.9165 278.8341 0002184  87.6511 272.4872 13.20771368158260
ONEWEB-0665             
1 55825U 23029AF  26146.46480687  .00000139  00000+0  34009-3 0  9994
2 55825  87.8934 294.0575 0001639  87.9595 272.1722 13.14501487156559
ONEWEB-0666             
1 55826U 23029AG  26146.36622975 -.00000402  00000+0 -10218-2 0  9992
2 55826  87.9164 278.8252 0002151 118.4796 241.6554 13.20771763158279
ONEWEB-0667             
1 55827U 23029AH  26146.36120899  .00000188  00000+0  42989-3 0  9991
2 55827  87.9181 278.7809 0001861  93.6003 266.5343 13.20771074158264
ONEWEB-0669             
1 55828U 23029AJ  26146.35614492  .00000060  00000+0  11565-3 0  9993
2 55828  87.9173 278.7946 0002438  96.9187 263.2224 13.20770820158268
ONEWEB-0670             
1 55829U 23029AK  26146.44259795 -.00000076  00000+0 -23837-3 0  9999
2 55829  87.8932 294.0794 0001995  85.9422 274.1936 13.14501670156571
ONEWEB-0671             
1 55830U 23029AL  26146.45570983  .00000085  00000+0  17941-3 0  9994
2 55830  87.9153 309.3083 0001754  88.0699 272.0635 13.19727115156036
ONEWEB-0672             
1 55831U 23029AM  26146.42684975 -.00000074  00000+0 -21465-3 0  9995
2 55831  87.9177 278.7733 0002075 104.4888 255.6475 13.20770000158274
ONEWEB-0673             
1 55832U 23029AN  26146.50863436  .00000049  00000+0  90170-4 0  9996
2 55832  87.9160 309.2875 0001856  89.1743 270.9602 13.19725442156042
ONEWEB-0674             
1 55833U 23029AP  26146.48701532  .00000164  00000+0  40694-3 0  9995
2 55833  87.8935 294.0477 0002047  86.4865 273.6499 13.14502773156565
ONEWEB-0675             
1 55834U 23029AQ  26146.44782287  .00000048  00000+0  88681-4 0  9998
2 55834  87.9152 309.3112 0001753 103.7152 256.4176 13.19726570156052
ONEWEB-0720             
1 55835U 23029AR  26146.43991876  .00000037  00000+0  61194-4 0  9992
2 55835  87.9151 309.3131 0001518  87.5780 272.5527 13.19725994155976
TIANHUI 6A              
1 55836U 23030A   26146.66021069  .00000342  00000+0  25586-3 0  9991
2 55836  99.0151 155.1559 0002279  56.9503 303.1881 14.01351073164384
TIANHUI 6B              
1 55839U 23030D   26146.58875425  .00000346  00000+0  25866-3 0  9993
2 55839  99.0137 155.0838 0001534  71.5055 288.6276 14.01352423164361
LUCH-5X (OLYMP-K 2)     
1 55841U 23031A   26146.60660653  .00000036  00000+0  00000+0 0  9990
2 55841   0.0273  60.7068 0000660 139.9652 323.8806  1.00271989 11729
HORUS 2                 
1 55844U 23032A   26146.64397271  .00006307  00000+0  26699-3 0  9994
2 55844  97.3540 222.4761 0003384 120.3914 239.7658 15.23519515178203
SHIYAN-19 (SY-19)       
1 55861U 23034A   26146.63645003  .00019915  00000+0  29009-3 0  9990
2 55861  97.3958   2.2441 0006979  74.8747 285.3279 15.55733826179210
GAOFEN-13 02            
1 55912U 23036A   26145.68829094 -.00000221  00000+0  00000+0 0  9994
2 55912   1.0184 358.3627 0004280 339.2184 301.6782  1.00269248 11861
STARLINK-5856           
1 55914U 23037A   26146.33297822  .00000395  00000+0  40929-4 0  9998
2 55914  69.9994 108.8440 0003344 269.0021  91.0755 14.98332616175802
STARLINK-5859           
1 55915U 23037B   26146.31628913  .00001458  00000+0  13000-3 0  9996
2 55915  69.9989 108.7831 0003312 266.9421  93.1359 14.98328905175792
STARLINK-5796           
1 55916U 23037C   26146.32881051  .00001003  00000+0  91849-4 0  9996
2 55916  69.9994 108.8290 0004048 263.2735  96.7963 14.98322724175113
STARLINK-5867           
1 55918U 23037E   26146.32462691  .00000540  00000+0  53081-4 0  9994
2 55918  69.9992 108.8137 0003906 263.8027  96.2688 14.98334064175114
STARLINK-5871           
1 55919U 23037F   26146.31644665  .00000300  00000+0  32949-4 0  9991
2 55919  69.9992 108.7833 0003569 267.5562  92.5189 14.98332828175118
